{
  "norad_id": 59621,
  "name": "STARLINK-31758",
  "history": [
    {
      "epoch": "2026-03-28T19:49:53.251392Z",
      "apogee_km": 483.8800694073534,
      "perigee_km": 482.22130867165106,
      "latitude_deg": -7.837062874203485e-06,
      "longitude_deg": 162.29052587595564,
      "height_km": 482.82366487579054,
      "semi_major_axis_km": 6861.1876890395015,
      "eccentricity": 0.00012088,
      "inclination_deg": 43.0023,
      "raan_deg": 286.0036,
      "arg_perigee_deg": 270.2641,
      "mean_anomaly_deg": 89.8072,
      "mean_motion_rev_day": 15.27579468
    },
    {
      "epoch": "2026-03-30T12:37:57.396864Z",
      "apogee_km": 483.8431368425727,
      "perigee_km": 482.2914068844484,
      "latitude_deg": 1.6995854880101583e-05,
      "longitude_deg": -101.00426314377596,
      "height_km": 482.9265863579862,
      "semi_major_axis_km": 6861.20427186351,
      "eccentricity": 0.00011308,
      "inclination_deg": 42.9987,
      "raan_deg": 276.4017,
      "arg_perigee_deg": 263.8586,
      "mean_anomaly_deg": 96.2137,
      "mean_motion_rev_day": 15.2757393
    },
    {
      "epoch": "2026-03-30T20:28:44.736384Z",
      "apogee_km": 483.79454394204913,
      "perigee_km": 482.34120352569335,
      "latitude_deg": -1.9298143103092023e-05,
      "longitude_deg": 139.13100691402823,
      "height_km": 482.8605467049998,
      "semi_major_axis_km": 6861.204873733871,
      "eccentricity": 0.00010591,
      "inclination_deg": 43.0012,
      "raan_deg": 274.5565,
      "arg_perigee_deg": 268.7283,
      "mean_anomaly_deg": 91.3447,
      "mean_motion_rev_day": 15.27573729
    }
  ]
}